{"fetched_at":"2026-07-11T06:35:10.092Z","source":"https://celestrak.org/NORAD/elements/gp.php?GROUP=spire&FORMAT=JSON","constellation":"spire","records":[{"OBJECT_NAME":"LEMUR-2-LEIA-PHILIP","OBJECT_ID":"2025-052AN","EPOCH":"2026-07-10T12:37:05.276064","CLASSIFICATION_TYPE":"U","MEAN_MOTION":14.97385737,"ECCENTRICITY":0.0005042,"INCLINATION":97.6815,"RA_OF_ASC_NODE":83.0813,"ARG_OF_PERICENTER":130.3106,"MEAN_ANOMALY":229.8557,"EPHEMERIS_TYPE":0,"NORAD_CAT_ID":63246,"ELEMENT_SET_NO":999,"REV_AT_EPOCH":7216,"BSTAR":0.00010603,"MEAN_MOTION_DOT":0.00001175,"MEAN_MOTION_DDOT":0},{"OBJECT_NAME":"LEMUR-2-LIA-MARTIN","OBJECT_ID":"2025-052AQ","EPOCH":"2026-07-10T02:54:56.409408","CLASSIFICATION_TYPE":"U","MEAN_MOTION":14.98002545,"ECCENTRICITY":0.00054137,"INCLINATION":97.6875,"RA_OF_ASC_NODE":83.1935,"ARG_OF_PERICENTER":102.3403,"MEAN_ANOMALY":257.8426,"EPHEMERIS_TYPE":0,"NORAD_CAT_ID":63248,"ELEMENT_SET_NO":999,"REV_AT_EPOCH":7211,"BSTAR":0.00032409936,"MEAN_MOTION_DOT":0.0000377,"MEAN_MOTION_DDOT":0},{"OBJECT_NAME":"LEMUR-2-DELOITTE-1","OBJECT_ID":"2025-052BB","EPOCH":"2026-07-08T16:45:18.552960","CLASSIFICATION_TYPE":"U","MEAN_MOTION":14.97751965,"ECCENTRICITY":0.00023088,"INCLINATION":97.6884,"RA_OF_ASC_NODE":82.1233,"ARG_OF_PERICENTER":66.8273,"MEAN_ANOMALY":293.3192,"EPHEMERIS_TYPE":0,"NORAD_CAT_ID":63259,"ELEMENT_SET_NO":999,"REV_AT_EPOCH":7191,"BSTAR":0.00020556086,"MEAN_MOTION_DOT":0.00002354,"MEAN_MOTION_DDOT":0},{"OBJECT_NAME":"LEMUR-2-EMERSONROSE","OBJECT_ID":"2025-052BD","EPOCH":"2026-07-10T04:29:28.879584","CLASSIFICATION_TYPE":"U","MEAN_MOTION":14.99261714,"ECCENTRICITY":0.00027969,"INCLINATION":97.6882,"RA_OF_ASC_NODE":84.1911,"ARG_OF_PERICENTER":68.6204,"MEAN_ANOMALY":291.5317,"EPHEMERIS_TYPE":0,"NORAD_CAT_ID":63261,"ELEMENT_SET_NO":999,"REV_AT_EPOCH":7218,"BSTAR":0.00028198246,"MEAN_MOTION_DOT":0.00003381,"MEAN_MOTION_DDOT":0},{"OBJECT_NAME":"LEMUR-2-MARACHE-FRAN","OBJECT_ID":"2025-052BE","EPOCH":"2026-07-10T05:07:07.577760","CLASSIFICATION_TYPE":"U","MEAN_MOTION":15.00296503,"ECCENTRICITY":0.00046727,"INCLINATION":97.6852,"RA_OF_ASC_NODE":84.5777,"ARG_OF_PERICENTER":274.4307,"MEAN_ANOMALY":85.6383,"EPHEMERIS_TYPE":0,"NORAD_CAT_ID":63262,"ELEMENT_SET_NO":999,"REV_AT_EPOCH":7221,"BSTAR":0.0002068771,"MEAN_MOTION_DOT":0.00002533,"MEAN_MOTION_DDOT":0},{"OBJECT_NAME":"LEMUR-2-THEFALCONER","OBJECT_ID":"2025-052BG","EPOCH":"2026-07-09T03:05:08.888640","CLASSIFICATION_TYPE":"U","MEAN_MOTION":14.97544949,"ECCENTRICITY":0.00007348,"INCLINATION":97.685,"RA_OF_ASC_NODE":82.1435,"ARG_OF_PERICENTER":22.7964,"MEAN_ANOMALY":337.3291,"EPHEMERIS_TYPE":0,"NORAD_CAT_ID":63264,"ELEMENT_SET_NO":999,"REV_AT_EPOCH":7197,"BSTAR":0.00022140592,"MEAN_MOTION_DOT":0.00002526,"MEAN_MOTION_DDOT":0},{"OBJECT_NAME":"LEMUR-2-UNTITLED-SC","OBJECT_ID":"2025-061A","EPOCH":"2026-07-10T08:38:26.976480","CLASSIFICATION_TYPE":"U","MEAN_MOTION":15.13626636,"ECCENTRICITY":0.00186925,"INCLINATION":97.5647,"RA_OF_ASC_NODE":166.5561,"ARG_OF_PERICENTER":179.4862,"MEAN_ANOMALY":180.6392,"EPHEMERIS_TYPE":0,"NORAD_CAT_ID":63351,"ELEMENT_SET_NO":999,"REV_AT_EPOCH":7109,"BSTAR":0.00013281982,"MEAN_MOTION_DOT":0.00002328,"MEAN_MOTION_DDOT":0},{"OBJECT_NAME":"LEMUR-2-ESPERANZA","OBJECT_ID":"2025-061B","EPOCH":"2026-07-10T14:24:10.862208","CLASSIFICATION_TYPE":"U","MEAN_MOTION":15.13735521,"ECCENTRICITY":0.0018328,"INCLINATION":97.5654,"RA_OF_ASC_NODE":166.8936,"ARG_OF_PERICENTER":177.8917,"MEAN_ANOMALY":182.2395,"EPHEMERIS_TYPE":0,"NORAD_CAT_ID":63352,"ELEMENT_SET_NO":999,"REV_AT_EPOCH":7113,"BSTAR":0.00013207,"MEAN_MOTION_DOT":0.00002322,"MEAN_MOTION_DDOT":0},{"OBJECT_NAME":"LEMUR-2-KREMPEL-BRO2","OBJECT_ID":"2025-061C","EPOCH":"2026-07-10T08:32:42.490176","CLASSIFICATION_TYPE":"U","MEAN_MOTION":15.14158603,"ECCENTRICITY":0.00194849,"INCLINATION":97.5701,"RA_OF_ASC_NODE":167.2141,"ARG_OF_PERICENTER":171.4566,"MEAN_ANOMALY":188.7001,"EPHEMERIS_TYPE":0,"NORAD_CAT_ID":63353,"ELEMENT_SET_NO":999,"REV_AT_EPOCH":7111,"BSTAR":0.00014248101,"MEAN_MOTION_DOT":0.00002542,"MEAN_MOTION_DDOT":0},{"OBJECT_NAME":"LEMUR-2-THERMORAPTOR","OBJECT_ID":"2025-061D","EPOCH":"2026-07-10T14:25:43.406112","CLASSIFICATION_TYPE":"U","MEAN_MOTION":15.14243165,"ECCENTRICITY":0.001929,"INCLINATION":97.5705,"RA_OF_ASC_NODE":167.5381,"ARG_OF_PERICENTER":169.5482,"MEAN_ANOMALY":190.6154,"EPHEMERIS_TYPE":0,"NORAD_CAT_ID":63354,"ELEMENT_SET_NO":999,"REV_AT_EPOCH":7115,"BSTAR":0.00013515,"MEAN_MOTION_DOT":0.00002413,"MEAN_MOTION_DDOT":0},{"OBJECT_NAME":"LEMUR-2-NEUROSPICY","OBJECT_ID":"2025-061E","EPOCH":"2026-07-10T16:52:38.298720","CLASSIFICATION_TYPE":"U","MEAN_MOTION":15.14361279,"ECCENTRICITY":0.0017012,"INCLINATION":97.5634,"RA_OF_ASC_NODE":167.2476,"ARG_OF_PERICENTER":171.9086,"MEAN_ANOMALY":188.2423,"EPHEMERIS_TYPE":0,"NORAD_CAT_ID":63355,"ELEMENT_SET_NO":999,"REV_AT_EPOCH":7117,"BSTAR":0.00011946,"MEAN_MOTION_DOT":0.0000213,"MEAN_MOTION_DDOT":0},{"OBJECT_NAME":"LEMUR-2-TILLINFINITY","OBJECT_ID":"2025-061F","EPOCH":"2026-07-10T19:05:28.999392","CLASSIFICATION_TYPE":"U","MEAN_MOTION":15.14946198,"ECCENTRICITY":0.0018616,"INCLINATION":97.5619,"RA_OF_ASC_NODE":167.6464,"ARG_OF_PERICENTER":160.4787,"MEAN_ANOMALY":199.7162,"EPHEMERIS_TYPE":0,"NORAD_CAT_ID":63356,"ELEMENT_SET_NO":999,"REV_AT_EPOCH":7121,"BSTAR":0.00012574,"MEAN_MOTION_DOT":0.00002285,"MEAN_MOTION_DDOT":0},{"OBJECT_NAME":"LEMUR-2-KREMPEL-BRO1","OBJECT_ID":"2025-061G","EPOCH":"2026-07-10T16:56:30.122016","CLASSIFICATION_TYPE":"U","MEAN_MOTION":15.14752549,"ECCENTRICITY":0.0019195,"INCLINATION":97.562,"RA_OF_ASC_NODE":167.4667,"ARG_OF_PERICENTER":162.0688,"MEAN_ANOMALY":198.1226,"EPHEMERIS_TYPE":0,"NORAD_CAT_ID":63357,"ELEMENT_SET_NO":999,"REV_AT_EPOCH":7119,"BSTAR":0.00011642,"MEAN_MOTION_DOT":0.000021,"MEAN_MOTION_DDOT":0},{"OBJECT_NAME":"LEMUR-2-LANGER2SPACE","OBJECT_ID":"2025-061H","EPOCH":"2026-07-10T11:20:53.008800","CLASSIFICATION_TYPE":"U","MEAN_MOTION":15.14445813,"ECCENTRICITY":0.0016942,"INCLINATION":97.5624,"RA_OF_ASC_NODE":167.0395,"ARG_OF_PERICENTER":171.1205,"MEAN_ANOMALY":189.033,"EPHEMERIS_TYPE":0,"NORAD_CAT_ID":63358,"ELEMENT_SET_NO":999,"REV_AT_EPOCH":7114,"BSTAR":0.00014175,"MEAN_MOTION_DOT":0.00002547,"MEAN_MOTION_DDOT":0},{"OBJECT_NAME":"LEMUR-2-BALTO","OBJECT_ID":"2025-052BH","EPOCH":"2026-07-10T03:08:47.216256","CLASSIFICATION_TYPE":"U","MEAN_MOTION":15.00335374,"ECCENTRICITY":0.00054077,"INCLINATION":97.6934,"RA_OF_ASC_NODE":84.4803,"ARG_OF_PERICENTER":348.2785,"MEAN_ANOMALY":11.8312,"EPHEMERIS_TYPE":0,"NORAD_CAT_ID":63395,"ELEMENT_SET_NO":999,"REV_AT_EPOCH":7220,"BSTAR":0.00029516608,"MEAN_MOTION_DOT":0.00003644,"MEAN_MOTION_DDOT":0},{"OBJECT_NAME":"LEMUR-2-KRISH","OBJECT_ID":"2025-135AK","EPOCH":"2026-07-10T06:41:55.319136","CLASSIFICATION_TYPE":"U","MEAN_MOTION":14.96425392,"ECCENTRICITY":0.00017013,"INCLINATION":97.7764,"RA_OF_ASC_NODE":306.0004,"ARG_OF_PERICENTER":98.2728,"MEAN_ANOMALY":261.8686,"EPHEMERIS_TYPE":0,"NORAD_CAT_ID":64561,"ELEMENT_SET_NO":999,"REV_AT_EPOCH":5737,"BSTAR":0.00032232974,"MEAN_MOTION_DOT":0.00003597,"MEAN_MOTION_DDOT":0}]}
